HIMAWARI-8              
1 40267U 14060A   23310.49354955 -.00000269  00000+0  00000+0 0  9999
2 40267   0.0449  87.5810 0001118 128.4803 147.7540  1.00273452 33305
